[{"OBJECT_NAME":"STARLINK-3552","OBJECT_ID":"2022-017AX","EPOCH":"2026-03-09T22:46:59.222784","MEAN_MOTION":15.08832758,"ECCENTRICITY":0.00011223,"INCLINATION":53.2185,"RA_OF_ASC_NODE":327.9839,"ARG_OF_PERICENTER":78.4437,"MEAN_ANOMALY":281.6681,"EPHEMERIS_TYPE":0,"CLASSIFICATION_TYPE":"U","NORAD_CAT_ID":51813,"ELEMENT_SET_NO":999,"REV_AT_EPOCH":22412,"BSTAR":4.102763e-6,"MEAN_MOTION_DOT":-2.22e-6,"MEAN_MOTION_DDOT":0},{"OBJECT_NAME":"METEOR 2-5 DEB","OBJECT_ID":"1979-095D","EPOCH":"2026-03-07T02:20:18.720096","MEAN_MOTION":15.07655153,"ECCENTRICITY":0.00106351,"INCLINATION":81.1653,"RA_OF_ASC_NODE":357.8549,"ARG_OF_PERICENTER":34.5561,"MEAN_ANOMALY":325.6353,"EPHEMERIS_TYPE":0,"CLASSIFICATION_TYPE":"U","NORAD_CAT_ID":28555,"ELEMENT_SET_NO":999,"REV_AT_EPOCH":23235,"BSTAR":0.011673296,"MEAN_MOTION_DOT":0.00182479,"MEAN_MOTION_DDOT":0}]
